NORAD_CAT_ID,OBJECT_NAME,OBJECT_TYPE,EPOCH,MEAN_MOTION,ECCENTRICITY,INCLINATION,RA_OF_ASC_NODE,ARG_OF_PERICENTER,MEAN_ANOMALY,BSTAR,MEAN_MOTION_DOT,MEAN_MOTION_DDOT,TLE_LINE0,TLE_LINE1,TLE_LINE2,SEMIMAJOR_AXIS,PERIOD,APOGEE,PERIGEE,DECAYED
55295.0,STARLINK-5293,PAYLOAD,2023-12-30 20:17:11,14.98328341,0.0002288,69.9993,261.2786,255.8384,104.2521,-8.4486e-06,-1.94e-06,0.0,0 STARLINK-5293,1 55295U 23010AC  23364.84526970 -.00000194  00000-0 -84486-5 0  9992,2 55295  69.9993 261.2786 0002288 255.8384 104.2521 14.98328341 52667,6950.198,96.107,573.653,570.473,0.0
55295.0,STARLINK-5293,PAYLOAD,2023-12-30 21:53:19,14.9832864,0.0002288,69.9993,261.1105,255.1319,104.9586,-3.6808e-05,-5.32e-06,0.0,0 STARLINK-5293,1 55295U 23010AC  23364.91203004 -.00000532  00000-0 -36808-4 0  9990,2 55295  69.9993 261.1105 0002288 255.1319 104.9586 14.98328640 52987,6950.197,96.107,573.652,570.472,0.0
55295.0,STARLINK-5293,PAYLOAD,2023-12-31 20:19:12,14.98330758,0.0002597,69.9983,258.7521,269.2412,90.8449,5.0927e-05,5.15e-06,0.0,0 STARLINK-5293,1 55295U 23010AC  23365.84666709  .00000515  00000-0  50927-4 0  9995,2 55295  69.9983 258.7521 0002597 269.2412  90.8449 14.98330758 52819,6950.191,96.107,573.861,570.251,0.0
55295.0,STARLINK-5293,PAYLOAD,2023-12-31 21:55:20,14.98329308,0.0002585,69.9984,258.5832,270.7419,89.3444,5.133e-05,5.2e-06,0.0,0 STARLINK-5293,1 55295U 23010AC  23365.91342788  .00000520  00000-0  51330-4 0  9996,2 55295  69.9984 258.5832 0002585 270.7419  89.3444 14.98329308 53137,6950.195,96.107,573.857,570.263,0.0
55295.0,STARLINK-5293,PAYLOAD,2024-01-01 02:43:44,14.98333126,0.0002432,69.9985,258.0791,262.9057,97.1825,4.9891e-05,5.02e-06,0.0,0 STARLINK-5293,1 55295U 23010AC  24001.11370511  .00000502  00000-0  49891-4 0  9990,2 55295  69.9985 258.0791 0002432 262.9057  97.1825 14.98333126 53165,6950.183,96.107,573.739,570.358,0.0
55295.0,STARLINK-5293,PAYLOAD,2024-01-01 20:21:12,14.98331501,0.0002435,69.9986,256.2273,263.592,96.4962,0.00010957,1.215e-05,0.0,0 STARLINK-5293,1 55295U 23010AC  24001.84806403  .00001215  00000-0  10957-3 0  9996,2 55295  69.9986 256.2273 0002435 263.5920  96.4962 14.98331501 52966,6950.188,96.107,573.746,570.361,0.0
55295.0,STARLINK-5293,PAYLOAD,2024-01-01 21:57:20,14.98331826,0.0002425,69.9985,256.059,262.983,97.1053,0.00011268,1.252e-05,0.0,0 STARLINK-5293,1 55295U 23010AC  24001.91482373  .00001252  00000-0  11268-3 0  9997,2 55295  69.9985 256.0590 0002425 262.9830  97.1053 14.98331826 53282,6950.187,96.107,573.738,570.367,0.0
55295.0,STARLINK-5293,PAYLOAD,2024-01-02 02:45:44,14.98334104,0.0002419,69.9986,255.5543,263.1646,96.9238,0.00013183,1.48e-05,0.0,0 STARLINK-5293,1 55295U 23010AC  24002.11510159  .00001480  00000-0  13183-3 0  9995,2 55295  69.9986 255.5543 0002419 263.1646  96.9238 14.98334104 53314,6950.18,96.107,573.726,570.364,0.0
55295.0,STARLINK-5293,PAYLOAD,2024-01-02 21:59:21,14.98332405,0.0002334,69.9988,253.5347,260.04,100.0495,2.5148e-05,2.07e-06,0.0,0 STARLINK-5293,1 55295U 23010AC  24002.91622351  .00000207  00000-0  25148-4 0  9992,2 55295  69.9988 253.5347 0002334 260.0400 100.0495 14.98332405 53433,6950.185,96.107,573.673,570.428,0.0
55295.0,STARLINK-5293,PAYLOAD,2024-01-03 02:47:45,14.98332777,0.0002353,69.9989,253.03,260.8903,99.199,2.4286e-05,1.97e-06,0.0,0 STARLINK-5293,1 55295U 23010AC  24003.11650298  .00000197  00000-0  24286-4 0  9996,2 55295  69.9989 253.0300 0002353 260.8903  99.1990 14.98332777 53154,6950.184,96.107,573.685,570.414,0.0
55295.0,STARLINK-5293,PAYLOAD,2024-01-03 22:01:22,14.98319971,0.0002137,69.9992,251.0113,261.0201,99.0716,0.00018002,2.055e-05,0.0,0 STARLINK-5293,1 55295U 23010AC  24003.91762651  .00002055  00000-0  18002-3 0  9994,2 55295  69.9992 251.0113 0002137 261.0201  99.0716 14.98319971 53585,6950.224,96.108,573.574,570.604,0.0
55295.0,STARLINK-5293,PAYLOAD,2024-01-04 02:49:46,14.98330546,0.0002427,69.9991,250.5058,264.6874,95.4008,-6.9844e-06,-1.76e-06,0.0,0 STARLINK-5293,1 55295U 23010AC  24004.11790420 -.00000176  00000-0 -69844-5 0  9998,2 55295  69.9991 250.5058 0002427 264.6874  95.4008 14.98330546 53308,6950.191,96.107,573.743,570.369,0.0
55295.0,STARLINK-5293,PAYLOAD,2024-01-04 22:03:23,14.9832974,0.0002384,69.9987,248.4855,260.563,99.526,6.4633e-05,6.78e-06,0.0,0 STARLINK-5293,1 55295U 23010AC  24004.91902134  .00000678  00000-0  64633-4 0  9998,2 55295  69.9987 248.4855 0002384 260.5630  99.5260 14.98329740 53737,6950.194,96.107,573.716,570.402,0.0
55295.0,STARLINK-5293,PAYLOAD,2024-01-05 01:15:39,14.98331248,0.0002345,69.9989,248.149,260.2337,99.8558,8.2096e-05,8.87e-06,0.0,0 STARLINK-5293,1 55295U 23010AC  24005.05253984  .00000887  00000-0  82096-4 0  9991,2 55295  69.9989 248.1490 0002345 260.2337  99.8558 14.98331248 53750,6950.189,96.107,573.684,570.424,0.0
55295.0,STARLINK-5293,PAYLOAD,2024-01-05 20:29:16,14.98328061,0.0002374,69.9987,246.1289,262.1205,97.9684,2.8551e-05,2.48e-06,0.0,0 STARLINK-5293,1 55295U 23010AC  24005.85366314  .00000248  00000-0  28551-4 0  9998,2 55295  69.9987 246.1289 0002374 262.1205  97.9684 14.98328061 53566,6950.199,96.107,573.714,570.414,0.0
55295.0,STARLINK-5293,PAYLOAD,2024-01-05 22:05:24,14.98327654,0.0002379,69.9986,245.9605,260.9802,99.1088,2.3073e-05,1.82e-06,0.0,0 STARLINK-5293,1 55295U 23010AC  24005.92042356  .00000182  00000-0  23073-4 0  9994,2 55295  69.9986 245.9605 0002379 260.9802  99.1088 14.98327654 53882,6950.2,96.107,573.719,570.412,0.0
55295.0,STARLINK-5293,PAYLOAD,2024-01-05 23:41:32,14.98328135,0.0002375,69.9986,245.7922,261.2705,98.8186,2.7998e-05,2.41e-06,0.0,0 STARLINK-5293,1 55295U 23010AC  24005.98718320  .00000241  00000-0  27998-4 0  9997,2 55295  69.9986 245.7922 0002375 261.2705  98.8186 14.98328135 53895,6950.199,96.107,573.714,570.413,0.0
55295.0,STARLINK-5293,PAYLOAD,2024-01-06 22:07:25,14.98328581,0.0002466,69.9981,243.4339,267.6547,92.433,-2.7106e-05,-4.16e-06,0.0,0 STARLINK-5293,1 55295U 23010AC  24006.92182507 -.00000416  00000-0 -27106-4 0  9991,2 55295  69.9981 243.4339 0002466 267.6547  92.4330 14.98328581 54035,6950.197,96.107,573.776,570.348,0.0
55295.0,STARLINK-5293,PAYLOAD,2024-01-07 01:19:41,14.98329351,0.0002476,69.9981,243.0973,268.7048,91.3827,-1.8483e-05,-3.13e-06,0.0,0 STARLINK-5293,1 55295U 23010AC  24007.05534448 -.00000313  00000-0 -18483-4 0  9995,2 55295  69.9981 243.0973 0002476 268.7048  91.3827 14.98329351 53746,6950.195,96.107,573.781,570.339,0.0
55295.0,STARLINK-5293,PAYLOAD,2024-01-07 22:09:26,14.98330172,0.0002539,69.9979,240.9089,268.9316,91.1552,4.1812e-05,4.06e-06,0.0,0 STARLINK-5293,1 55295U 23010AC  24007.92322276  .00000406  00000-0  41812-4 0  9998,2 55295  69.9979 240.9089 0002539 268.9316  91.1552 14.98330172 54182,6950.192,96.107,573.822,570.293,0.0
55295.0,STARLINK-5293,PAYLOAD,2024-01-08 01:21:42,14.98332309,0.0002528,69.998,240.5725,269.2681,90.8188,6.4904e-05,6.82e-06,0.0,0 STARLINK-5293,1 55295U 23010AC  24008.05674077  .00000682  00000-0  64904-4 0  9995,2 55295  69.9980 240.5725 0002528 269.2681  90.8188 14.98332309 53896,6950.186,96.107,573.808,570.294,0.0
55295.0,STARLINK-5293,PAYLOAD,2024-01-08 22:11:27,14.98330992,0.0002463,69.9983,238.384,268.6727,91.4149,6.7841e-05,7.17e-06,0.0,0 STARLINK-5293,1 55295U 23010AC  24008.92462168  .00000717  00000-0  67841-4 0  9999,2 55295  69.9983 238.3840 0002463 268.6727  91.4149 14.98330992 54334,6950.19,96.107,573.767,570.343,0.0
55295.0,STARLINK-5293,PAYLOAD,2024-01-09 01:23:43,14.98332318,0.0002452,69.9983,238.0476,268.3207,91.7671,8.0128e-05,8.63e-06,0.0,0 STARLINK-5293,1 55295U 23010AC  24009.05814041  .00000863  00000-0  80128-4 0  9990,2 55295  69.9983 238.0476 0002452 268.3207  91.7671 14.98332318 54049,6950.186,96.107,573.755,570.347,0.0
55295.0,STARLINK-5293,PAYLOAD,2024-01-09 14:12:47,14.98333804,0.0002317,69.9987,236.7015,262.8529,97.2366,4.6813e-05,4.66e-06,0.0,0 STARLINK-5293,1 55295U 23010AC  24009.59221968  .00000466  00000-0  46813-4 0  9991,2 55295  69.9987 236.7015 0002317 262.8529  97.2366 14.98333804 54439,6950.181,96.107,573.656,570.436,0.0
55295.0,STARLINK-5293,PAYLOAD,2024-01-09 22:13:28,14.98333516,0.0002333,69.9986,235.8597,261.7353,98.3541,3.8417e-05,3.66e-06,0.0,0 STARLINK-5293,1 55295U 23010AC  24009.92601922  .00000366  00000-0  38417-4 0  9990,2 55295  69.9986 235.8597 0002333 261.7353  98.3541 14.98333516 54486,6950.182,96.107,573.668,570.426,0.0
55295.0,STARLINK-5293,PAYLOAD,2024-01-10 01:25:44,14.98333942,0.0002338,69.9987,235.5233,263.741,96.3483,4.0435e-05,3.9e-06,0.0,0 STARLINK-5293,1 55295U 23010AC  24010.05953872  .00000390  00000-0  40435-4 0  9990,2 55295  69.9987 235.5233 0002338 263.7410  96.3483 14.98333942 54196,6950.181,96.107,573.671,570.421,0.0
55295.0,STARLINK-5293,PAYLOAD,2024-01-11 01:27:45,14.98330433,0.0002289,69.9988,232.9984,262.0857,98.0042,3.5935e-06,-5e-07,0.0,0 STARLINK-5293,1 55295U 23010AC  24011.06094097 -.00000050  00000-0  35935-5 0  9991,2 55295  69.9988 232.9984 0002289 262.0857  98.0042 14.98330433 54342,6950.192,96.107,573.647,570.466,0.0
55295.0,STARLINK-5293,PAYLOAD,2024-01-11 22:17:29,14.9833141,0.0002305,69.9988,230.8102,260.2683,99.8215,1.3863e-05,7.2e-07,0.0,0 STARLINK-5293,1 55295U 23010AC  24011.92881918  .00000072  00000-0  13863-4 0  9990,2 55295  69.9988 230.8102 0002305 260.2683  99.8215 14.98331410 54782,6950.189,96.107,573.656,570.452,0.0
55295.0,STARLINK-5293,PAYLOAD,2024-01-12 14:18:50,14.98326815,0.0002294,69.9988,229.1267,261.9258,98.1641,1.5434e-05,9.1e-07,0.0,0 STARLINK-5293,1 55295U 23010AC  24012.59642256  .00000091  00000-0  15434-4 0  9991,2 55295  69.9988 229.1267 0002294 261.9258  98.1641 14.98326815 54887,6950.203,96.107,573.662,570.473,0.0
55295.0,STARLINK-5293,PAYLOAD,2024-01-12 19:07:15,14.98326679,0.0002315,69.9989,228.6215,261.788,98.3016,1.1385e-05,4.3e-07,0.0,0 STARLINK-5293,1 55295U 23010AC  24012.79670303  .00000043  00000-0  11385-4 0  9995,2 55295  69.9989 228.6215 0002315 261.7880  98.3016 14.98326679 54604,6950.203,96.107,573.677,570.459,0.0
